{"type": "FeatureCollection", "features": [ {"type": "Feature", "properties": {"norad_id": 41469, "name": "IRNSS-1G", "group": "gnss", "lat": -2.5695065043871823, "lon": -45.176955745312846, "alt_km": 35803.10473925249, "timestamp": "2025-12-11T07:02:23.973208+00:00", "meta": {"OBJECT_NAME": "IRNSS-1G", "OBJECT_ID": "2016-027A", "EPOCH": "2025-12-10T07:18:31.930272", "MEAN_MOTION": 1.00250551, "ECCENTRICITY": 0.00046359, "INCLINATION": 4.7271, "RA_OF_ASC_NODE": 102.1628, "ARG_OF_PERICENTER": 335.3904, "MEAN_ANOMALY": 240.5348, "EPHEMERIS_TYPE": 0, "CLASSIFICATION_TYPE": "U", "NORAD_CAT_ID": 41469, "ELEMENT_SET_NO": 999, "REV_AT_EPOCH": 3528, "BSTAR": 0, "MEAN_MOTION_DOT": -3.34e-06, "MEAN_MOTION_DDOT": 0}, "tle": {"line1": "1 41469U 16027A   25344.30453623 -.00000334  00000+0  00000+0 0  9993", "line2": "2 41469   4.7271 102.1628 0004635 335.3904 240.5348  1.00250551 35285"}}, "geometry": {"type": "Point", "coordinates": [-45.176955745312846, -2.5695065043871823]}}, {"type": "Feature", "properties": {"norad_id": 41549, "name": "GSAT0211 (GALILEO 14)", "group": "gnss", "lat": 42.170902727822494, "lon": 7.783388818862562, "alt_km": 23221.375141890847, "timestamp": "2025-12-11T07:02:23.973220+00:00", "meta": {"OBJECT_NAME": "GSAT0211 (GALILEO 14)", "OBJECT_ID": "2016-030A", "EPOCH": "2025-12-07T13:40:58.264320", "MEAN_MOTION": 1.70472997, "ECCENTRICITY": 0.00040128, "INCLINATION": 55.154, "RA_OF_ASC_NODE": 226.9659, "ARG_OF_PERICENTER": 14.4678, "MEAN_ANOMALY": 345.6377, "EPHEMERIS_TYPE": 0, "CLASSIFICATION_TYPE": "U", "NORAD_CAT_ID": 41549, "ELEMENT_SET_NO": 999, "REV_AT_EPOCH": 5940, "BSTAR": 0, "MEAN_MOTION_DOT": 2.3e-07, "MEAN_MOTION_DDOT": 0}, "tle": {"line1": "1 41549U 16030A   25341.57011880  .00000023  00000+0  00000+0 0  9991", "line2": "2 41549  55.1540 226.9659 0004012  14.4678 345.6377  1.70472997 59400"}}, "geometry": {"type": "Point", "coordinates": [7.783388818862562, 42.170902727822494]}}, {"type": "Feature", "properties": {"norad_id": 41550, "name": "GSAT0210 (GALILEO 13)", "group": "gnss", "lat": -26.501906158987442, "lon": -153.43977805148012, "alt_km": 23225.16010476649, "timestamp": "2025-12-11T07:02:23.973231+00:00", "meta": {"OBJECT_NAME": "GSAT0210 (GALILEO 13)", "OBJECT_ID": "2016-030B", "EPOCH": "2025-12-09T00:00:58.854816", "MEAN_MOTION": 1.70473614, "ECCENTRICITY": 0.0001366, "INCLINATION": 55.1527, "RA_OF_ASC_NODE": 226.9246, "ARG_OF_PERICENTER": 244.5421, "MEAN_ANOMALY": 115.531, "EPHEMERIS_TYPE": 0, "CLASSIFICATION_TYPE": "U", "NORAD_CAT_ID": 41550, "ELEMENT_SET_NO": 999, "REV_AT_EPOCH": 5942, "BSTAR": 0, "MEAN_MOTION_DOT": 1.3e-07, "MEAN_MOTION_DDOT": 0}, "tle": {"line1": "1 41550U 16030B   25343.00068119  .00000013  00000+0  00000+0 0  9999", "line2": "2 41550  55.1527 226.9246 0001366 244.5421 115.5310  1.70473614 59420"}}, "geometry": {"type": "Point", "coordinates": [-153.43977805148012, -26.501906158987442]}}, {"type": "Feature", "properties": {"norad_id": 41586, "name": "BEIDOU-2 G7 (C03)", "group": "gnss", "lat": -1.3271560735549106, "lon": -63.75411468058639, "alt_km": 35799.760905882904, "timestamp": "2025-12-11T07:02:23.973244+00:00", "meta": {"OBJECT_NAME": "BEIDOU-2 G7 (C03)", "OBJECT_ID": "2016-037A", "EPOCH": "2025-12-10T19:12:13.540608", "MEAN_MOTION": 1.0026797, "ECCENTRICITY": 0.00043812, "INCLINATION": 1.7526, "RA_OF_ASC_NODE": 67.7376, "ARG_OF_PERICENTER": 0.2505, "MEAN_ANOMALY": 50.2876, "EPHEMERIS_TYPE": 0, "CLASSIFICATION_TYPE": "U", "NORAD_CAT_ID": 41586, "ELEMENT_SET_NO": 999, "REV_AT_EPOCH": 500, "BSTAR": 0, "MEAN_MOTION_DOT": -3.48e-06, "MEAN_MOTION_DDOT": 0}, "tle": {"line1": "1 41586U 16037A   25344.80015672 -.00000348  00000+0  00000+0 0  9992", "line2": "2 41586   1.7526  67.7376 0004381   0.2505  50.2876  1.00267970  5006"}}, "geometry": {"type": "Point", "coordinates": [-63.75411468058639, -1.3271560735549106]}}, {"type": "Feature", "properties": {"norad_id": 41589, "name": "EUTELSAT 117 WEST B (WAAS/PRN 131)", "group": "gnss", "lat": -0.007113561991342114, "lon": 68.86475292399415, "alt_km": 35784.45145675999, "timestamp": "2025-12-11T07:02:23.973257+00:00", "meta": {"OBJECT_NAME": "EUTELSAT 117 WEST B (WAAS/PRN 131)", "OBJECT_ID": "2016-038B", "EPOCH": "2025-12-10T14:41:49.473888", "MEAN_MOTION": 1.00271682, "ECCENTRICITY": 4.035e-05, "INCLINATION": 0.0104, "RA_OF_ASC_NODE": 147.6779, "ARG_OF_PERICENTER": 297.9326, "MEAN_ANOMALY": 97.4445, "EPHEMERIS_TYPE": 0, "CLASSIFICATION_TYPE": "U", "NORAD_CAT_ID": 41589, "ELEMENT_SET_NO": 999, "REV_AT_EPOCH": 3477, "BSTAR": 0, "MEAN_MOTION_DOT": -7e-08, "MEAN_MOTION_DDOT": 0}, "tle": {"line1": "1 41589U 16038B   25344.61237817 -.00000007  00000+0  00000+0 0  9994", "line2": "2 41589   0.0104 147.6779 0000403 297.9326  97.4445  1.00271682 34771"}}, "geometry": {"type": "Point", "coordinates": [68.86475292399415, -0.007113561991342114]}}, {"type": "Feature", "properties": {"norad_id": 41859, "name": "GSAT0207 (GALILEO 15)", "group": "gnss", "lat": 19.327288150126, "lon": -87.72789967659945, "alt_km": 23226.209583389173, "timestamp": "2025-12-11T07:02:23.973268+00:00", "meta": {"OBJECT_NAME": "GSAT0207 (GALILEO 15)", "OBJECT_ID": "2016-069A", "EPOCH": "2025-12-09T20:46:23.344608", "MEAN_MOTION": 1.70474355, "ECCENTRICITY": 0.00021941, "INCLINATION": 55.3802, "RA_OF_ASC_NODE": 106.3298, "ARG_OF_PERICENTER": 323.9491, "MEAN_ANOMALY": 36.0038, "EPHEMERIS_TYPE": 0, "CLASSIFICATION_TYPE": "U", "NORAD_CAT_ID": 41859, "ELEMENT_SET_NO": 999, "REV_AT_EPOCH": 5617, "BSTAR": 0, "MEAN_MOTION_DOT": 1.1e-07, "MEAN_MOTION_DDOT": 0}, "tle": {"line1": "1 41859U 16069A   25343.86554797  .00000011  00000+0  00000+0 0  9997", "line2": "2 41859  55.3802 106.3298 0002194 323.9491  36.0038  1.70474355 56173"}}, "geometry": {"type": "Point", "coordinates": [-87.72789967659945, 19.327288150126]}}, {"type": "Feature", "properties": {"norad_id": 41860, "name": "GSAT0212 (GALILEO 16)", "group": "gnss", "lat": -48.80422540897437, "lon": -21.677292363693187, "alt_km": 23232.826157095144, "timestamp": "2025-12-11T07:02:23.973300+00:00", "meta": {"OBJECT_NAME": "GSAT0212 (GALILEO 16)", "OBJECT_ID": "2016-069B", "EPOCH": "2025-12-09T03:10:58.927872", "MEAN_MOTION": 1.70474546, "ECCENTRICITY": 0.00021877, "INCLINATION": 55.3778, "RA_OF_ASC_NODE": 106.3455, "ARG_OF_PERICENTER": 30.0277, "MEAN_ANOMALY": 329.9496, "EPHEMERIS_TYPE": 0, "CLASSIFICATION_TYPE": "U", "NORAD_CAT_ID": 41860, "ELEMENT_SET_NO": 999, "REV_AT_EPOCH": 5641, "BSTAR": 0, "MEAN_MOTION_DOT": 1e-07, "MEAN_MOTION_DDOT": 0}, "tle": {"line1": "1 41860U 16069B   25343.13262648  .00000010  00000+0  00000+0 0  9999", "line2": "2 41860  55.3778 106.3455 0002187  30.0277 329.9496  1.70474546 56413"}}, "geometry": {"type": "Point", "coordinates": [-21.677292363693187, -48.80422540897437]}}, {"type": "Feature", "properties": {"norad_id": 41861, "name": "GSAT0213 (GALILEO 17)", "group": "gnss", "lat": 16.746853468146174, "lon": 118.26850286501113, "alt_km": 23220.953979581685, "timestamp": "2025-12-11T07:02:23.973316+00:00", "meta": {"OBJECT_NAME": "GSAT0213 (GALILEO 17)", "OBJECT_ID": "2016-069C", "EPOCH": "2025-12-08T21:55:35.814144", "MEAN_MOTION": 1.70474823, "ECCENTRICITY": 0.00022753, "INCLINATION": 55.38, "RA_OF_ASC_NODE": 106.3592, "ARG_OF_PERICENTER": 283.5203, "MEAN_ANOMALY": 76.4183, "EPHEMERIS_TYPE": 0, "CLASSIFICATION_TYPE": "U", "NORAD_CAT_ID": 41861, "ELEMENT_SET_NO": 999, "REV_AT_EPOCH": 5627, "BSTAR": 0, "MEAN_MOTION_DOT": 1e-07, "MEAN_MOTION_DDOT": 0}, "tle": {"line1": "1 41861U 16069C   25342.91360896  .00000010  00000+0  00000+0 0  9999", "line2": "2 41861  55.3800 106.3592 0002275 283.5203  76.4183  1.70474823 56273"}}, "geometry": {"type": "Point", "coordinates": [118.26850286501113, 16.746853468146174]}}, {"type": "Feature", "properties": {"norad_id": 41862, "name": "GSAT0214 (GALILEO 18)", "group": "gnss", "lat": -50.25701098588788, "lon": 50.17046567429507, "alt_km": 23223.75786189088, "timestamp": "2025-12-11T07:02:23.973327+00:00", "meta": {"OBJECT_NAME": "GSAT0214 (GALILEO 18)", "OBJECT_ID": "2016-069D", "EPOCH": "2025-12-10T19:39:52.929504", "MEAN_MOTION": 1.70474684, "ECCENTRICITY": 0.00013288, "INCLINATION": 55.3792, "RA_OF_ASC_NODE": 106.2992, "ARG_OF_PERICENTER": 290.9764, "MEAN_ANOMALY": 68.9794, "EPHEMERIS_TYPE": 0, "CLASSIFICATION_TYPE": "U", "NORAD_CAT_ID": 41862, "ELEMENT_SET_NO": 999, "REV_AT_EPOCH": 5643, "BSTAR": 0, "MEAN_MOTION_DOT": 1e-07, "MEAN_MOTION_DDOT": 0}, "tle": {"line1": "1 41862U 16069D   25344.81936261  .00000010  00000+0  00000+0 0  9996", "line2": "2 41862  55.3792 106.2992 0001328 290.9764  68.9794  1.70474684 56436"}}, "geometry": {"type": "Point", "coordinates": [50.17046567429507, -50.25701098588788]}}, {"type": "Feature", "properties": {"norad_id": 42709, "name": "SES-15 (WAAS/PRN 133)", "group": "gnss", "lat": 0.03565967612693498, "lon": 56.67290282815781, "alt_km": 35789.61982095515, "timestamp": "2025-12-11T07:02:23.973339+00:00", "meta": {"OBJECT_NAME": "SES-15 (WAAS/PRN 133)", "OBJECT_ID": "2017-026A", "EPOCH": "2025-12-10T16:21:05.150304", "MEAN_MOTION": 1.00269458, "ECCENTRICITY": 8.248e-05, "INCLINATION": 0.0188, "RA_OF_ASC_NODE": 344.3681, "ARG_OF_PERICENTER": 219.9297, "MEAN_ANOMALY": 351.4572, "EPHEMERIS_TYPE": 0, "CLASSIFICATION_TYPE": "U", "NORAD_CAT_ID": 42709, "ELEMENT_SET_NO": 999, "REV_AT_EPOCH": 554, "BSTAR": 0, "MEAN_MOTION_DOT": 6.4e-07, "MEAN_MOTION_DDOT": 0}, "tle": {"line1": "1 42709U 17026A   25344.68130961  .00000064  00000+0  00000+0 0  9998", "line2": "2 42709   0.0188 344.3681 0000824 219.9297 351.4572  1.00269458  5549"}}, "geometry": {"type": "Point", "coordinates": [56.67290282815781, 0.03565967612693498]}}]}